[{"OBJECT_NAME":"EOSSAT-1","OBJECT_ID":"2023-001AW","EPOCH":"2026-03-09T17:40:07.010400","MEAN_MOTION":15.32339828,"ECCENTRICITY":0.00112629,"INCLINATION":97.3357,"RA_OF_ASC_NODE":130.2294,"ARG_OF_PERICENTER":110.3168,"MEAN_ANOMALY":249.9285,"EPHEMERIS_TYPE":0,"CLASSIFICATION_TYPE":"U","NORAD_CAT_ID":55053,"ELEMENT_SET_NO":999,"REV_AT_EPOCH":17668,"BSTAR":0.00024844399,"MEAN_MOTION_DOT":7.695e-5,"MEAN_MOTION_DDOT":0},{"OBJECT_NAME":"STARLINK-36458","OBJECT_ID":"2026-003K","EPOCH":"2026-03-09T11:33:01.311552","MEAN_MOTION":15.27571621,"ECCENTRICITY":0.00014309,"INCLINATION":42.9974,"RA_OF_ASC_NODE":228.0961,"ARG_OF_PERICENTER":230.7461,"MEAN_ANOMALY":129.3264,"EPHEMERIS_TYPE":0,"CLASSIFICATION_TYPE":"U","NORAD_CAT_ID":67343,"ELEMENT_SET_NO":999,"REV_AT_EPOCH":879,"BSTAR":0.0013148191,"MEAN_MOTION_DOT":0.00036087,"MEAN_MOTION_DDOT":0}]
